NORAD_CAT_ID,OBJECT_NAME,OBJECT_TYPE,EPOCH,MEAN_MOTION,ECCENTRICITY,INCLINATION,RA_OF_ASC_NODE,ARG_OF_PERICENTER,MEAN_ANOMALY,BSTAR,MEAN_MOTION_DOT,MEAN_MOTION_DDOT,TLE_LINE0,TLE_LINE1,TLE_LINE2,SEMIMAJOR_AXIS,PERIOD,APOGEE,PERIGEE,DECAYED
55278.0,STARLINK-5289,PAYLOAD,2023-12-18 22:17:11,14.98323542,0.0002428,70.0035,291.1339,222.6812,137.4158,3.0348e-05,2.69e-06,0.0,0 STARLINK-5289,1 55278U 23010K   23352.92859997  .00000269  00000-0  30348-4 0  9995,2 55278  70.0035 291.1339 0002428 222.6812 137.4158 14.98323542 51186,6950.213,96.107,573.765,570.39,0.0
55278.0,STARLINK-5289,PAYLOAD,2023-12-19 03:05:35,14.98320682,0.0002585,70.0029,290.6294,225.6465,134.4483,-6.6502e-06,-1.72e-06,0.0,0 STARLINK-5289,1 55278U 23010K   23353.12888348 -.00000172  00000-0 -66502-5 0  9997,2 55278  70.0029 290.6294 0002585 225.6465 134.4483 14.98320682 50914,6950.222,96.108,573.883,570.29,0.0
55278.0,STARLINK-5289,PAYLOAD,2023-12-19 06:17:51,14.9832353,0.000295,69.9997,290.2865,264.0233,96.059,-6.3302e-05,-8.48e-06,0.0,0 STARLINK-5289,1 55278U 23010K   23353.26240378 -.00000848  00000-0 -63302-4 0  9991,2 55278  69.9997 290.2865 0002950 264.0233  96.0590 14.98323530 51234,6950.213,96.107,574.128,570.028,0.0
55278.0,STARLINK-5289,PAYLOAD,2023-12-20 03:07:35,14.98336879,0.0002377,70.0001,288.0973,253.9639,106.1259,-9.1298e-05,-1.182e-05,0.0,0 STARLINK-5289,1 55278U 23010K   23354.13027774 -.00001182  00000-0 -91298-4 0  9998,2 55278  70.0001 288.0973 0002377 253.9639 106.1259 14.98336879 51064,6950.172,96.107,573.689,570.385,0.0
55278.0,STARLINK-5289,PAYLOAD,2023-12-20 04:43:43,14.98339071,0.0002681,70.0001,287.929,267.6772,92.408,-6.0453e-05,-8.14e-06,0.0,0 STARLINK-5289,1 55278U 23010K   23354.19703547 -.00000814  00000-0 -60453-4 0  9993,2 55278  70.0001 287.9290 0002681 267.6772  92.4080 14.98339071 51372,6950.165,96.106,573.893,570.167,0.0
55278.0,STARLINK-5289,PAYLOAD,2023-12-20 22:21:12,14.98331675,0.0002645,70.0002,286.0768,269.4326,90.653,0.00018594,2.126e-05,0.0,0 STARLINK-5289,1 55278U 23010K   23354.93139129  .00002126  00000-0  18594-3 0  9998,2 55278  70.0002 286.0768 0002645 269.4326  90.6530 14.98331675 51482,6950.188,96.107,573.891,570.214,0.0
55278.0,STARLINK-5289,PAYLOAD,2023-12-21 03:09:35,14.98336626,0.0002534,70.0003,285.5718,267.1997,92.8872,0.00023785,2.747e-05,0.0,0 STARLINK-5289,1 55278U 23010K   23355.13166622  .00002747  00000-0  23785-3 0  9996,2 55278  70.0003 285.5718 0002534 267.1997  92.8872 14.98336626 51213,6950.172,96.107,573.799,570.276,0.0
55278.0,STARLINK-5289,PAYLOAD,2023-12-21 04:45:43,14.98338426,0.0002521,70.0004,285.4037,266.463,93.6241,0.00025293,2.927e-05,0.0,0 STARLINK-5289,1 55278U 23010K   23355.19842440  .00002927  00000-0  25293-3 0  9997,2 55278  70.0004 285.4037 0002521 266.4630  93.6241 14.98338426 51522,6950.167,96.106,573.784,570.28,0.0
55278.0,STARLINK-5289,PAYLOAD,2023-12-21 22:23:13,14.98332606,0.0002792,70.0035,283.5599,205.1698,154.9326,-5.6582e-05,-7.68e-06,0.0,0 STARLINK-5289,1 55278U 23010K   23355.93279550 -.00000768  00000-0 -56582-4 0  9994,2 55278  70.0035 283.5599 0002792 205.1698 154.9326 14.98332606 51633,6950.185,96.107,573.99,570.109,0.0
55278.0,STARLINK-5289,PAYLOAD,2023-12-22 03:11:38,14.98319653,0.0002178,70.002,283.0501,235.0187,125.0768,-7.4165e-05,-9.77e-06,0.0,0 STARLINK-5289,1 55278U 23010K   23356.13308520 -.00000977  00000-0 -74165-4 0  9996,2 55278  70.0020 283.0501 0002178 235.0187 125.0768 14.98319653 51364,6950.225,96.108,573.604,570.576,0.0
55278.0,STARLINK-5289,PAYLOAD,2023-12-22 04:47:46,14.98320021,0.0002159,70.0017,282.8812,241.0914,119.0029,-9.1647e-05,-1.186e-05,0.0,0 STARLINK-5289,1 55278U 23010K   23356.19984597 -.00001186  00000-0 -91647-4 0  9993,2 55278  70.0017 282.8812 0002159 241.0914 119.0029 14.98320021 51674,6950.224,96.108,573.589,570.588,0.0
55278.0,STARLINK-5289,PAYLOAD,2023-12-22 22:25:14,14.9833735,0.0002192,70.0011,281.0286,251.9161,108.176,-7.1792e-05,-9.49e-06,0.0,0 STARLINK-5289,1 55278U 23010K   23356.93419432 -.00000949  00000-0 -71792-4 0  9991,2 55278  70.0011 281.0286 0002192 251.9161 108.1760 14.98337350 51781,6950.17,96.107,573.559,570.512,0.0
55278.0,STARLINK-5289,PAYLOAD,2023-12-23 03:13:38,14.98337004,0.000219,70.0011,280.5237,252.3365,107.7555,-6.7995e-05,-9.04e-06,0.0,0 STARLINK-5289,1 55278U 23010K   23357.13447370 -.00000904  00000-0 -67995-4 0  9997,2 55278  70.0011 280.5237 0002190 252.3365 107.7555 14.98337004 51514,6950.171,96.107,573.558,570.514,0.0
55278.0,STARLINK-5289,PAYLOAD,2023-12-23 04:49:46,14.98340693,0.0002578,70.0,280.3544,268.0744,92.012,-3.7551e-05,-5.41e-06,0.0,0 STARLINK-5289,1 55278U 23010K   23357.20123052 -.00000541  00000-0 -37551-4 0  9995,2 55278  70.0000 280.3544 0002578 268.0744  92.0120 14.98340693 51822,6950.16,96.106,573.817,570.233,0.0
55278.0,STARLINK-5289,PAYLOAD,2023-12-23 19:14:59,14.9832232,0.0002319,70.0005,278.8398,261.0186,99.071,7.3028e-05,7.78e-06,0.0,0 STARLINK-5289,1 55278U 23010K   23357.80207902  .00000778  00000-0  73028-4 0  9997,2 55278  70.0005 278.8398 0002319 261.0186  99.0710 14.98322320 51618,6950.217,96.107,573.693,570.47,0.0
55278.0,STARLINK-5289,PAYLOAD,2023-12-23 22:27:16,14.9831845,0.0002425,70.0003,278.5039,263.0537,97.0347,1.4146e-05,7.6e-07,0.0,0 STARLINK-5289,1 55278U 23010K   23357.93560401  .00000076  00000-0  14146-4 0  9994,2 55278  70.0003 278.5039 0002425 263.0537  97.0347 14.98318450 51933,6950.229,96.108,573.779,570.408,0.0
55278.0,STARLINK-5289,PAYLOAD,2023-12-24 03:15:41,14.98311523,0.0002574,70.0001,277.9984,268.4603,91.6261,-7.2797e-05,-9.61e-06,0.0,0 STARLINK-5289,1 55278U 23010K   23358.13589254 -.00000961  00000-0 -72797-4 0  9995,2 55278  70.0001 277.9984 0002574 268.4603  91.6261 14.98311523 51660,6950.25,96.108,573.904,570.326,0.0
55278.0,STARLINK-5289,PAYLOAD,2023-12-24 04:51:49,14.98311897,0.0002571,70.0001,277.8303,268.044,92.0425,-6.8511e-05,-9.1e-06,0.0,0 STARLINK-5289,1 55278U 23010K   23358.20265288 -.00000910  00000-0 -68511-4 0  9994,2 55278  70.0001 277.8303 0002571 268.0440  92.0425 14.98311897 51971,6950.249,96.108,573.901,570.327,0.0
55278.0,STARLINK-5289,PAYLOAD,2023-12-24 19:17:00,14.98332725,0.0003482,69.9982,276.3153,274.3898,85.6863,-2.9019e-05,-4.39e-06,0.0,0 STARLINK-5289,1 55278U 23010K   23358.80348098 -.00000439  00000-0 -29019-4 0  9997,2 55278  69.9982 276.3153 0003482 274.3898  85.6863 14.98332725 51766,6950.184,96.107,574.47,569.629,0.0
55278.0,STARLINK-5289,PAYLOAD,2023-12-24 22:29:16,14.98339719,0.0002934,69.9995,275.9777,271.3568,88.7255,6.5158e-05,6.85e-06,0.0,0 STARLINK-5289,1 55278U 23010K   23358.93699350  .00000685  00000-0  65158-4 0  9996,2 55278  69.9995 275.9777 0002934 271.3568  88.7255 14.98339719 52084,6950.163,96.106,574.067,569.989,0.0
55278.0,STARLINK-5289,PAYLOAD,2023-12-25 03:17:40,14.98343236,0.0002458,70.0,275.4724,260.5651,99.523,0.00010557,1.167e-05,0.0,0 STARLINK-5289,1 55278U 23010K   23359.13726882  .00001167  00000-0  10557-3 0  9998,2 55278  70.0000 275.4724 0002458 260.5651  99.5230 14.98343236 51817,6950.152,96.106,573.725,570.309,0.0
55278.0,STARLINK-5289,PAYLOAD,2023-12-25 04:53:48,14.98341292,0.0002208,70.0012,275.3052,243.8456,116.2476,0.00013669,1.539e-05,0.0,0 STARLINK-5289,1 55278U 23010K   23359.20402869  .00001539  00000-0  13669-3 0  9992,2 55278  70.0012 275.3052 0002208 243.8456 116.2476 14.98341292 52127,6950.158,96.106,573.558,570.488,0.0
55278.0,STARLINK-5289,PAYLOAD,2023-12-25 19:19:01,14.98322454,0.0002522,70.0001,273.7888,255.118,104.9699,0.00014604,1.65e-05,0.0,0 STARLINK-5289,1 55278U 23010K   23359.80487831  .00001650  00000-0  14604-3 0  9994,2 55278  70.0001 273.7888 0002522 255.1180 104.9699 14.98322454 51919,6950.216,96.107,573.834,570.328,0.0
55278.0,STARLINK-5289,PAYLOAD,2023-12-25 22:31:17,14.98321732,0.0002774,69.9996,273.4523,254.5647,105.5205,0.00011532,1.283e-05,0.0,0 STARLINK-5289,1 55278U 23010K   23359.93839979  .00001283  00000-0  11532-3 0  9991,2 55278  69.9996 273.4523 0002774 254.5647 105.5205 14.98321732 52236,6950.218,96.108,574.011,570.155,0.0
55278.0,STARLINK-5289,PAYLOAD,2023-12-26 04:55:50,14.98322249,0.0002855,69.9994,272.7777,258.0556,102.0283,0.00012633,1.414e-05,0.0,0 STARLINK-5289,1 55278U 23010K   23360.20544028  .00001414  00000-0  12633-3 0  9990,2 55278  69.9994 272.7777 0002855 258.0556 102.0283 14.98322249 52271,6950.217,96.107,574.066,570.098,0.0
55278.0,STARLINK-5289,PAYLOAD,2023-12-26 19:21:02,14.98338645,0.0002828,69.9998,271.2627,256.7784,103.306,-0.00014418,-1.813e-05,0.0,0 STARLINK-5289,1 55278U 23010K   23360.80627863 -.00001813  00000-0 -14418-3 0  9993,2 55278  69.9998 271.2627 0002828 256.7784 103.3060 14.98338645 52062,6950.166,96.106,573.997,570.066,0.0
55278.0,STARLINK-5289,PAYLOAD,2023-12-26 22:33:18,14.98338871,0.00026,69.9999,270.9261,255.7377,104.3493,-0.00010279,-1.319e-05,0.0,0 STARLINK-5289,1 55278U 23010K   23360.93979666 -.00001319  00000-0 -10279-3 0  9990,2 55278  69.9999 270.9261 0002600 255.7377 104.3493 14.98338871 52385,6950.165,96.106,573.838,570.223,0.0
55278.0,STARLINK-5289,PAYLOAD,2023-12-27 03:21:40,14.98363759,0.0002625,70.0001,270.4226,266.6793,93.4066,0.00024239,2.803e-05,0.0,0 STARLINK-5289,1 55278U 23010K   23361.14005279  .00002803  00000-0  24239-3 0  9992,2 55278  70.0001 270.4226 0002625 266.6793  93.4066 14.98363759 52116,6950.088,96.105,573.778,570.129,0.0
55278.0,STARLINK-5289,PAYLOAD,2023-12-27 19:23:03,14.98317603,0.0003005,70.0,268.7381,263.085,96.9967,-4.9743e-05,-6.86e-06,0.0,0 STARLINK-5289,1 55278U 23010K   23361.80768072 -.00000686  00000-0 -49743-4 0  9999,2 55278  70.0000 268.7381 0003005 263.0850  96.9967 14.98317603 52211,6950.231,96.108,574.185,570.008,0.0
55278.0,STARLINK-5289,PAYLOAD,2023-12-27 20:59:11,14.98317689,0.0002958,70.0,268.5698,262.246,97.8363,-5.3732e-05,-7.34e-06,0.0,0 STARLINK-5289,1 55278U 23010K   23361.87444104 -.00000734  00000-0 -53732-4 0  9990,2 55278  70.0000 268.5698 0002958 262.2460  97.8363 14.98317689 52522,6950.231,96.108,574.152,570.04,0.0
